#Pass ID: 20260121_071731_METOP-B
#Satellite: METOP-B
#Configuration: METOP-B
#Start time: 2026-01-21 07:17:36.567167

#LorettStation: 1.0.0 05.05.2024
#Station: R2.0S_Raduga
#Location: 37.601861 lon 55.688408 lat
#TLE: 1 38771U 12049A   26020.22708385  .00000202  00000+0  11248-3 0  9999
#TLE: 2 38771  98.6740  74.5231 0003151  66.1513 293.9995 14.21424642692245

#Time	Az	El	Level	SNR
#Closed at: 2026-01-21 07:17:31.568201